{
  "norad_id": 55579,
  "name": "STARLINK-5754",
  "history": [
    {
      "epoch": "2026-03-28T18:50:32.245152",
      "apogee_km": 483.7431272312351,
      "perigee_km": 482.36814422703446,
      "latitude_deg": -32.46155018593508,
      "longitude_deg": 173.26916128001176,
      "semi_major_axis_km": 6861.192635729134,
      "eccentricity": 0.0001002,
      "inclination_deg": 43.0004,
      "raan_deg": 257.3155,
      "arg_perigee_deg": 282.1866,
      "mean_anomaly_deg": 77.8874,
      "mean_motion_rev_day": 15.27577816
    }
  ]
}