{"fetched_at":"2026-03-29T16:36:15Z","count":15609,"tles":[{"name":"STARLINK-5754","line1":"1 55579U 23020L   26087.78509543  .00000400  00000+0  24054-4 0  9994","line2":"2 55579  43.0004 257.3155 0001002 282.1866  77.8874 15.27577816171838","category":"Starlink"}]}